[{"OBJECT_NAME":"STARLINK-34173","OBJECT_ID":"2025-113AC","EPOCH":"2026-03-09T06:56:50.123328","MEAN_MOTION":15.30190549,"ECCENTRICITY":0.00012565,"INCLINATION":53.1578,"RA_OF_ASC_NODE":93.001,"ARG_OF_PERICENTER":99.243,"MEAN_ANOMALY":260.8713,"EPHEMERIS_TYPE":0,"CLASSIFICATION_TYPE":"U","NORAD_CAT_ID":64196,"ELEMENT_SET_NO":999,"REV_AT_EPOCH":4500,"BSTAR":0.00040088068,"MEAN_MOTION_DOT":0.00011529,"MEAN_MOTION_DDOT":0},{"OBJECT_NAME":"OBJECT M","OBJECT_ID":"2025-155M","EPOCH":"2026-03-09T22:37:12.666144","MEAN_MOTION":15.33288683,"ECCENTRICITY":0.00088001,"INCLINATION":97.4429,"RA_OF_ASC_NODE":38.1052,"ARG_OF_PERICENTER":139.1253,"MEAN_ANOMALY":221.0651,"EPHEMERIS_TYPE":0,"CLASSIFICATION_TYPE":"U","NORAD_CAT_ID":64887,"ELEMENT_SET_NO":999,"REV_AT_EPOCH":6565,"BSTAR":0.00087834095,"MEAN_MOTION_DOT":0.00028279,"MEAN_MOTION_DDOT":0}]
